0 FLOCK 3P 13\
1 42040U 17008CW  19249.88024019 +.00001960 +00000-0 +78116-4 0  9996\
2 42040 097.4008 316.4876 0005820 232.6846 127.3863 15.26402504141376\
0 FLOCK 3P 55\
1 42041U 17008CX  19249.85561904  .00001391  00000-0  57600-4 0  9996\
2 42041  97.4006 316.1760 0005677 239.3091 120.7588 15.25591885142192\
0 FLOCK 3P 56\
1 42042U 17008CY  19250.47209505  .00001945  00000-0  75885-4 0  9993\
2 42042  97.4002 317.7352 0005566 229.4412 130.6343 15.27123742142146\
0 FLOCK 3P 29\
1 42045U 17008DB  19249.84774395 +.00002183 +00000-0 +87207-4 0  9995\
2 42045 097.3998 316.2146 0006905 206.0253 154.0639 15.26198694141378\
0 FLOCK 3P 78\
1 42047U 17008DD  19250.17860522  .00001785  00000-0  71942-4 0  9999\
2 42047  97.4027 316.8069 0006955 207.7925 152.2943 15.26133857141405\
0 FLOCK 3P 74\
1 42048U 17008DE  19250.18327820  .00001141  00000-0  47788-4 0  9997\
2 42048  97.4036 316.6946 0007391 211.2630 148.8170 15.25575501141392\
0 FLOCK 3P 31\
1 42049U 17008DF  19250.18420516  .00001294  00000-0  53800-4 0  9995\
2 42049  97.4004 316.3764 0007044 207.6390 152.4475 15.25583293140856\
0 FLOCK 3P 72\
1 42051U 17008DH  19249.82025175  .00001969  00000-0  78718-4 0  9993\
2 42051  97.4042 316.6078 0006659 211.2815 148.8028 15.26282580139673\
0 CICERO 6\
1 42793U 17036AE  19250.40885484  .00000663  00000-0  31441-4 0  9992\
2 42793  97.3427 306.6293 0008986 315.3002  44.7510 15.22668465122633\
0 OBJECT U\
1 42843U 17042U   19250.46698609 -.00000012  00000-0  41338-5 0  9998\
2 42843  97.5539 140.7876 0013618 140.0214 220.2011 14.91618946117034\
0 OBJECT Z\
1 42848U 17042Z   19250.49976793  .00000144  00000-0  19297-4 0  9992\
2 42848  97.5557 141.7105 0009108 135.3669 224.8286 14.92375327117099\
0 OBJECT AA\
1 42849U 17042AA  19250.49378162  .00000023  00000-0  74364-5 0  9992\
2 42849  97.5557 141.7201 0009051 137.2838 222.9087 14.92386824117051\
0 FLOCK 2K 03\
1 42850U 17042AB  19250.16869008  .00002695  00000-0  70664-4 0  9997\
2 42850  96.9288 128.5386 0008138 299.2438  60.7995 15.39458954120342\
0 FLOCK 2K 04\
1 42851U 17042AC  19250.48798739  .00002361  00000-0  61125-4 0  9997\
2 42851  96.9280 129.1399 0007947 299.1770  60.8682 15.39972363120418\
0 FLOCK 2K 01\
1 42852U 17042AD  19250.09892872  .00002376  00000-0  62270-4 0  9996\
2 42852  96.9285 128.4681 0007768 298.7918  61.2549 15.39583752120338\
0 FLOCK 2K 02\
1 42853U 17042AE  19250.09485174  .00003435  00000-0  94877-4 0  9995\
2 42853  96.9288 126.4236 0008690 305.2789  54.7643 15.37657781120188\
0 FLOCK 2K 47\
1 42854U 17042AF  19250.16663764  .00002749  00000-0  72147-4 0  9990\
2 42854  96.9287 128.5352 0007657 297.1187  62.9279 15.39413241120340\
0 FLOCK 2K 48\
1 42855U 17042AG  19250.47368363  .00003883  00000-0  99807-4 0  9994\
2 42855  96.9283 128.8815 0007347 295.3628  64.6858 15.39812578120393\
0 FLOCK 2K 45\
1 42856U 17042AH  19250.09773460  .00001961  00000-0  52045-4 0  9999\
2 42856  96.9284 128.4721 0007556 296.1505  63.8964 15.39397080120331\
0 FLOCK 2K 24\
1 42857U 17042AJ  19249.74139593  .00004618  00000-0  11585-3 0  9998\
2 42857  96.9276 128.1994 0007313 294.1033  65.9449 15.40462664120285\
0 FLOCK 2K 46\
1 42858U 17042AK  19250.46462094  .00003555  00000-0  90166-4 0  9997\
2 42858  96.9285 129.0642 0007408 292.6291  67.4172 15.40279469120403\
0 FLOCK 2K 23\
1 42859U 17042AL  19249.89501982  .00002598  00000-0  68191-4 0  9992\
2 42859  96.9292 128.3524 0007798 297.4259  62.6195 15.39459336120304\
0 FLOCK 2K 21\
1 42860U 17042AM  19249.90071434 +.00001977 +00000-0 +52430-4 0  9999\
2 42860 096.9292 128.3362 0007779 297.9960 062.0499 15.39405301120303\
0 FLOCK 2K 22\
1 42861U 17042AN  19249.80031489  .00005693  00000-0  13787-3 0  9995\
2 42861  96.9298 128.9506 0007263 294.6345  65.4146 15.41436862120333\
0 FLOCK 2K 07\
1 42862U 17042AP  19249.89755467 +.00002181 +00000-0 +57632-4 0  9991\
2 42862 096.9295 128.3755 0008041 297.4994 062.5435 15.39420082120318\
0 FLOCK 2K 08\
1 42863U 17042AQ  19249.89375384  .00003051  00000-0  79880-4 0  9994\
2 42863  96.9287 128.3293 0008041 298.6418  61.4020 15.39403851120303\
0 FLOCK 2K 05\
1 42864U 17042AR  19250.20154238  .00004241  00000-0  10487-3 0  9994\
2 42864  96.9284 129.1177 0007350 294.5429  65.5053 15.40946668120389\
0 FLOCK 2K 40\
1 42865U 17042AS  19250.21659183  .00002854  00000-0  74825-4 0  9990\
2 42865  96.9294 128.6913 0007971 296.9928  63.0504 15.39416179120350\
0 FLOCK 2K 39\
1 42866U 17042AT  19249.88889572 +.00002024 +00000-0 +53607-4 0  9993\
2 42866 096.9292 128.3584 0008063 297.5087 062.5340 15.39420874120300\
0 FLOCK 2K 37\
1 42867U 17042AU  19250.21246434  .00002503  00000-0  65766-4 0  9998\
2 42867  96.9288 128.6726 0008116 296.7168  63.3247 15.39451116120350\
0 FLOCK 2K 38\
1 42868U 17042AV  19250.18673213  .00004207  00000-0  10755-3 0  9994\
2 42868  96.9287 128.6961 0007803 293.3403  66.7023 15.39933785120354\
0 FLOCK 2K 31\
1 42869U 17042AW  19250.20724921  .00002857  00000-0  74846-4 0  9992\
2 42869  96.9286 128.6529 0008061 291.7563  68.2826 15.39437777120358\
0 FLOCK 2K 32\
1 42870U 17042AX  19249.74953817  .00002821  00000-0  73935-4 0  9998\
2 42870  96.9286 128.2152 0008036 294.9258  65.1153 15.39434184120286\
0 FLOCK 2K 29\
1 42871U 17042AY  19250.20275429  .00002745  00000-0  71969-4 0  9998\
2 42871  96.9290 128.6750 0008129 291.9039  68.1343 15.39445278120355\
0 FLOCK 2K 30\
1 42872U 17042AZ  19250.19996011  .00003036  00000-0  79351-4 0  9991\
2 42872  96.9295 128.6869 0008098 292.8121  67.2270 15.39457937120342\
0 FLOCK 2K 44\
1 42873U 17042BA  19249.61237527  .00003124  00000-0  81572-4 0  9993\
2 42873  96.9284 128.1064 0008748 281.7909  78.2356 15.39467223120263\
0 FLOCK 2K 43\
1 42874U 17042BB  19250.43524001  .00001140  00000-0  34576-4 0  9990\
2 42874  96.9286 126.5134 0010665 293.5511  66.4613 15.35989717120221\
0 FLOCK 2K 41\
1 42875U 17042BC  19250.18253107  .00002539  00000-0  66646-4 0  9995\
2 42875  96.9293 128.7163 0009220 281.8795  78.1418 15.39465113120355\
0 FLOCK 2K 36\
1 42876U 17042BD  19250.21956324  .00004140  00000-0  10391-3 0  9996\
2 42876  96.9283 128.8131 0008876 281.7591  78.2661 15.40495526120365\
0 FLOCK 2K 35\
1 42877U 17042BE  19249.74009952  .00002701  00000-0  70798-4 0  9998\
2 42877  96.9294 128.2780 0009145 283.0949  76.9277 15.39454550120283\
0 FLOCK 2K 34\
1 42878U 17042BF  19250.17236553  .00004030  00000-0  10325-3 0  9993\
2 42878  96.9287 128.7123 0008732 282.5723  77.4547 15.39883175120350\
0 FLOCK 2K 33\
1 42879U 17042BG  19249.73160160 +.00006070 +00000-0 +14282-3 0  9996\
2 42879 096.9282 129.2641 0008235 279.0461 080.9856 15.42278959120359\
0 FLOCK 2K 28\
1 42880U 17042BH  19249.85330017 +.00003052 +00000-0 +88909-4 0  9996\
2 42880 096.9292 126.0003 0010491 293.9643 066.0503 15.36047489120138\
0 FLOCK 2K 27\
1 42882U 17042BK  19249.73992580  .00005642  00000-0  13989-3 0  9996\
2 42882  96.9277 128.4173 0008832 283.5469  76.4795 15.40714936120292\
0 FLOCK 2K 26\
1 42883U 17042BL  19250.20883399  .00004105  00000-0  10390-3 0  9994\
2 42883  96.9283 128.9376 0009112 279.7609  80.2609 15.40243389120370\
0 FLOCK 2K 25\
1 42884U 17042BM  19249.73754772  .00002834  00000-0  74218-4 0  9990\
2 42884  96.9288 128.2532 0009202 283.7848  76.2375 15.39446189120289\
0 FLOCK 2K 20\
1 42885U 17042BN  19250.20890761  .00003612  00000-0  92255-4 0  9990\
2 42885  96.9290 128.8265 0009217 280.2510  79.7698 15.40040167120369\
0 FLOCK 2K 19\
1 42886U 17042BP  19249.86502800 +.00002782 +00000-0 +72868-4 0  9990\
2 42886 096.9293 128.4157 0009594 283.1631 076.8545 15.39446380120301\
0 FLOCK 2K 18\
1 42887U 17042BQ  19250.18044452  .00002840  00000-0  74276-4 0  9992\
2 42887  96.9294 128.7258 0009698 280.7400  79.2755 15.39478524120350\
0 FLOCK 2K 17\
1 42888U 17042BR  19249.62658557  .00004769  00000-0  11954-3 0  9992\
2 42888  96.9277 128.3354 0009026 280.1835  79.8394 15.40458570120284\
0 FLOCK 2K 16\
1 42889U 17042BS  19250.51275352  .00002801  00000-0  73309-4 0  9999\
2 42889  96.9298 129.0374 0009225 277.9748  82.0452 15.39467550120407\
0 FLOCK 2K 15\
1 42890U 17042BT  19250.17778573  .00002644  00000-0  69286-4 0  9990\
2 42890  96.9304 128.8048 0009583 280.4411  79.5756 15.39474950120359\
0 FLOCK 2K 13\
1 42891U 17042BU  19250.20592051  .00004557  00000-0  11242-3 0  9993\
2 42891  96.9311 129.0518 0008959 273.5687  86.4536 15.40971003120375\
0 FLOCK 2K 14\
1 42892U 17042BV  19249.78904470  .00004870  00000-0  12286-3 0  9994\
2 42892  96.9281 128.4439 0009174 279.3911  80.6299 15.40249860120305\
0 FLOCK 2K 12\
1 42893U 17042BW  19250.17282927  .00002921  00000-0  76395-4 0  9993\
2 42893  96.9295 128.7655 0009580 280.4605  79.5562 15.39458433120359\
0 FLOCK 2K 11\
1 42894U 17042BX  19250.18519920  .00002822  00000-0  73856-4 0  9990\
2 42894  96.9292 128.7225 0009398 275.9519  84.0657 15.39469539120355\
0 FLOCK 2K 10\
1 42895U 17042BY  19249.91484701 +.00002856 +00000-0 +74752-4 0  9991\
2 42895 096.9290 128.4542 0009604 278.9750 081.0410 15.39449613120314\
0 FLOCK 2K 09\
1 42896U 17042BZ  19250.18569943  .00002792  00000-0  70802-4 0  9996\
2 42896  96.9278 129.2495 0009066 275.9054  84.1160 15.40448961120563\
0 FLOCK 2K 06\
1 42897U 17042CA  19250.46913889  .00001911  00000-0  50720-4 0  9999\
2 42897  96.9289 128.9184 0008136 293.4689  66.5702 15.39417726120393\
0 FLOCK 3M 1\
1 42995U 17068J   19250.25752157  .00001532  00000-0  73078-4 0  9992\
2 42995  97.3831 357.4106 0017345  29.9799 330.2426 15.20451735102537\
0 FLOCK 3M 3\
1 42996U 17068K   19250.04692905  .00001511  00000-0  71843-4 0  9999\
2 42996  97.3778 356.9576 0016660  31.8697 328.3543 15.20605621102512\
0 FLOCK 3M 4\
1 42997U 17068L   19250.22176704  .00001043  00000-0  50878-4 0  9999\
2 42997  97.4032 359.0482 0016729  32.4799 327.7462 15.20409738102539\
0 FLOCK 3M 2\
1 42998U 17068M   19250.10976727  .00001475  00000-0  70639-4 0  9996\
2 42998  97.3917 358.1101 0015079  29.0693 331.1379 15.20420141102527\
